STARLINK-4618           
1 53735U 22107AM  22271.91667824 -.01219487  00000+0 -13999-1 0  9997
2 53735  53.2170 155.3729 0001625 150.1784 184.9304 15.64206806  1306
STARLINK-4652           
1 53736U 22107AN  22272.25001157  .00021114  00000+0  15520-3 0  9996
2 53736  53.2135 153.6040 0001476 125.5584 357.7045 15.73089954  3917
STARLINK-4646           
1 53737U 22107AP  22272.25001157 -.01190835  00000+0 -14131-1 0  9992
2 53737  53.2171 153.7484 0001575 148.3661 263.4394 15.63307368  3900
STARLINK-4662           
1 53738U 22107AQ  22271.91667824 -.01211776  00000+0 -13894-1 0  9997
2 53738  53.2170 155.3710 0001323 133.8680 202.1035 15.64221563  1308
STARLINK-4613           
1 53739U 22107AR  22272.07452168  .00240927  34193-4  56466-3 0  9995
2 53739  53.2098 151.9385 0007025 337.8468  22.2258 15.96477114  3831
STARLINK-4607           
1 53740U 22107AS  22272.25001157 -.01229403  00000+0 -14637-1 0  9991
2 53740  53.2162 153.7503 0001226 138.5551 272.3487 15.63316607  3906
STARLINK-4614           
1 53741U 22107AT  22271.91667824 -.01191281  00000+0 -13711-1 0  9997
2 53741  53.2175 155.3820 0001131 114.9080 215.9054 15.64080983  1302
STARLINK-4637           
1 53742U 22107AU  22271.91667824 -.01260028  00000+0 -14537-1 0  9991
2 53742  53.2170 155.3781 0001621 144.6881 187.8236 15.64174924  1305
STARLINK-4645           
1 53743U 22107AV  22272.25001157 -.01190653  00000+0 -14200-1 0  9994
2 53743  53.2171 153.7594 0001324 138.4781 268.0039 15.63182347  3909
STARLINK-4670           
1 53744U 22107AW  22271.91667824 -.01226025  00000+0 -14128-1 0  9998
2 53744  53.2171 155.3799 0001377 137.0791 194.5835 15.64128306  1304
STARLINK-4656           
1 53745U 22107AX  22272.25001157 -.01190717  00000+0 -14212-1 0  9990
2 53745  53.2171 153.7613 0001433 143.5241 262.0685 15.63161536  3900
STARLINK-4589           
1 53746U 22107AY  22271.91667824 -.01225400  00000+0 -14142-1 0  9992
2 53746  53.2170 155.3835 0001708 149.6798 180.2574 15.64086151  1303
STARLINK-4657           
1 53747U 22107AZ  22272.15743159  .00564596  16046-3  84865-3 0  9997
2 53747  53.2089 151.0096 0007216 298.1359  61.8945 16.04073102  3932
STARLINK-4669           
1 53748U 22107BA  22272.25001157 -.01190672  00000+0 -14223-1 0  9995
2 53748  53.2171 153.7629 0001455 144.4731 260.2295 15.63140714  3900
STARLINK-4680           
1 53749U 22107BB  22272.25001157 -.01190615  00000+0 -14235-1 0  9996
2 53749  53.2171 153.7651 0001252 134.5201 269.2920 15.63119859  3903
STARLINK-4612           
1 53750U 22107BC  22272.25001157 -.01190586  00000+0 -14246-1 0  9997
2 53750  53.2171 153.7665 0001321 138.5205 264.4003 15.63099034  3906
FALCON 9 DEB            
1 53751U 22107BD  22271.93024809  .00398878  78699-4  77441-3 0  9994
2 53751  53.2101 152.4507 0006357 316.1304  43.9222 15.99757274  3818
FALCON 9 DEB            
1 53752U 22107BE  22272.07593587  .00290367  45178-4  64804-3 0  9994
2 53752  53.2067 151.9441 0007813 347.5130  12.5706 15.97310715  3838
FALCON 9 DEB            
1 53753U 22107BF  22271.87404327  .00382969  73040-4  75262-3 0  9994
2 53753  53.2067 152.8117 0008165 316.2039  43.8344 15.99522361  3795
SHERPA-LTC2             
1 53754U 22107BG  22271.60020180  .00140216  18524-4  40636-3 0  9997
2 53754  53.2122 154.6871 0008951 343.7251  16.3489 15.92676839  3742
FALCON 9 DEB            
1 53755U 22107BH  22271.91768475  .00374080  71416-4  67540-3 0  9998
2 53755  53.2042 152.3583 0005844 301.8050  58.2413 16.01031593  3812
FALCON 9 DEB            
1 53756U 22107BJ  22271.91336868  .00430931  92590-4  75205-3 0  9997
2 53756  53.2062 152.3322 0007037 297.3583  62.6732 16.01582415  3819
CENTISPACE-1 S3         
1 53757U 22108A   22272.17816163 -.00001454  00000+0 -27286-3 0  9991
2 53757  53.5324 251.6764 0009383 345.2318  14.8471 14.58212573  3366
CENTISPACE-1 S4         
1 53758U 22108B   22272.18643506  .00000260  00000+0  96356-4 0  9999
2 53758  53.5291 251.7153 0009122 331.4606  28.5861 14.57722874  3365
KZ-1A R/B               
1 53759U 22108C   22272.09093942  .00534120  10087-4  74838-3 0  9991
2 53759  53.5532 239.3729 0334922 148.1564 214.0190 15.48361192  3539
YAOGAN-35 05A           
1 53760U 22109A   22272.11219815 -.00008217  00000+0 -33803-3 0  9997
2 53760  34.9983 241.2748 0006746 112.7562 304.8237 15.23166472  3506
YAOGAN-35 05B           
1 53761U 22109B   22272.15041635  .00011083  00000+0  45800-3 0  9998
2 53761  34.9954 240.9816 0006077 139.9530 146.9624 15.23199036  3462
CZ-2D DEB               
1 53762U 22109C   22272.10026789  .00019328  00000+0  77027-3 0  9993
2 53762  34.9969 241.1854 0007882 115.4643 296.9593 15.24317350  3466
YAOGAN-35 05C           
1 53763U 22109D   22272.11876280  .00007898  00000+0  32601-3 0  9992
2 53763  34.9968 241.2239 0005327 125.5708 331.5986 15.23299783  3460
CZ-2D R/B               
1 53764U 22109E   22272.10157766  .00034770  00000+0  13726-2 0  9998
2 53764  34.9944 241.1993 0007361 130.7262 282.0682 15.24537992  3465
EUTELSAT KONNECT VHTS   
1 53765U 22110A   22271.52927727 -.00000148  00000+0  00000+0 0  9999
2 53765   2.8761 141.6604 7750351 181.7619   3.7571  1.07719289   248
ARIANE 5 R/B            
1 53766U 22110B   22271.12750312  .00000532  00000+0  98140-3 0  9992
2 53766   3.3038 146.4757 8153001 177.7450 193.1837  1.26386387   263
1998-067UE              
1 53767U 98067UE  22271.70476132  .00033693  00000+0  55040-3 0  9992
2 53767  51.6415 183.5013 0002801 351.0070   9.0869 15.52231767  3475
BEAVERCUBE              
1 53768U 98067UF  22271.38478751  .00036966  00000+0  60633-3 0  9996
2 53768  51.6410 185.1137 0000712  18.2821 341.8194 15.52074830  3431
CLICK-A                 
1 53769U 98067UG  22272.15435486  .00055038  00000+0  87772-3 0  9995
2 53769  51.6425 181.2560 0000888 329.7486  30.3452 15.52680186  3553
1998-067UH              
1 53770U 98067UH  22272.14830400  .00057545  00000+0  89566-3 0  9999
2 53770  51.6421 181.2112 0001913 325.5367  34.5499 15.53334032  3550
JAGSAT                  
1 53771U 98067UJ  22271.56791070  .00061220  00000+0  94849-3 0  9999
2 53771  51.6412 184.0884 0001961 327.7846  32.3024 15.53434530  3450
STARLINK-4718           
1 53773U 22111A   22272.25001157  .00071290  00000+0  51148-3 0  9998
2 53773  53.2153 177.0877 0000861 126.4979 124.9282 15.73042901  2794
STARLINK-4719           
1 53774U 22111B   22272.25001157  .00088350  00000+0  63083-3 0  9995
2 53774  53.2157 177.0869 0001229 113.7505 138.2659 15.73069088  2794
STARLINK-4722           
1 53775U 22111C   22272.25001157  .00062933  00000+0  45196-3 0  9990
2 53775  53.2156 177.0821 0001211 111.6574 142.1549 15.73070303  2790
STARLINK-4708           
1 53776U 22111D   22272.25001157  .00056221  00000+0  40445-3 0  9996
2 53776  53.2156 177.0853 0000663 140.6594 111.9757 15.73075955  2793
STARLINK-4664           
1 53777U 22111E   22271.91667824 -.00125846  00000+0 -90506-3 0  9993
2 53777  53.2159 178.7294 0001184 120.1461  45.9455 15.73216939  1305
STARLINK-4709           
1 53778U 22111F   22272.25001157  .00087463  00000+0  62382-3 0  9994
2 53778  53.2152 177.0840 0001302 109.8334 143.3867 15.73098443  2795
STARLINK-4706           
1 53779U 22111G   22272.25001157  .00078043  00000+0  55918-3 0  9996
2 53779  53.2159 177.0793 0000932 127.9405 127.6617 15.73038062  2797
STARLINK-4678           
1 53780U 22111H   22272.25001157 -.00252340  00000+0 -18426-2 0  9996
2 53780  53.2169 177.0821 0001339 137.3095 117.7064 15.73267204  2792
STARLINK-4462           
1 53781U 22111J   22271.91667824 -.00181538  00000+0 -13081-2 0  9990
2 53781  53.2176 178.7251 0001847 142.2538  26.5410 15.73358059  1304
STARLINK-4679           
1 53782U 22111K   22271.91667824 -.00141933  00000+0 -10172-2 0  9994
2 53782  53.2174 178.7272 0001559 147.3043  20.2656 15.73354231  1304
STARLINK-4536           
1 53783U 22111L   22272.25001157  .00091809  00000+0  65433-3 0  9999
2 53783  53.2170 177.0748 0000894 140.2258 118.3641 15.73096196  2792
STARLINK-4687           
1 53784U 22111M   22271.91667824 -.00123014  00000+0 -87935-3 0  9998
2 53784  53.2171 178.7255 0001581 145.3217  22.8293 15.73346139  1303
STARLINK-4638           
1 53785U 22111N   22272.25001157  .00139885  00000+0  61060-3 0  9990
2 53785  53.2028 176.1096 0006482 316.4967  46.2722 15.83801528  2800
STARLINK-4631           
1 53786U 22111P   22271.91667824 -.00175874  00000+0 -12746-2 0  9998
2 53786  53.2163 178.7227 0001435 132.0483  37.0578 15.73207724  1301
STARLINK-4743           
1 53787U 22111Q   22272.25001157  .00053061  00000+0  38177-3 0  9996
2 53787  53.2171 177.0689 0001415 151.6764 109.2738 15.73096709  2795
STARLINK-4744           
1 53788U 22111R   22272.25001157  .00133346  00000+0  58066-3 0  9991
2 53788  53.2030 176.1071 0006484 316.0509  48.0118 15.83873304  2809
STARLINK-4666           
1 53789U 22111S   22272.25001157  .00091060  00000+0  65343-3 0  9994
2 53789  53.2166 177.0671 0001061  56.4200 205.5027 15.72939653  2790
STARLINK-4734           
1 53790U 22111T   22272.25001157  .00142790  00000+0  10069-2 0  9997
2 53790  53.2166 177.0703 0000940 111.3404 149.2885 15.73146710  2791
STARLINK U              
1 53791U 22111U   22272.12316145  .00095615  00000+0  41963-3 0  9991
2 53791  53.2037 176.7425 0005651 296.7022  63.3424 15.83851667  2862
STARLINK-4739           
1 53792U 22111V   22271.91667824 -.00080706  00000+0 -57375-3 0  9992
2 53792  53.2172 178.7166 0001746 143.6060  29.0722 15.73295259  1306
STARLINK-4728           
1 53793U 22111W   22271.91667824 -.00203770  00000+0 -14805-2 0  9991
2 53793  53.2176 178.7132 0001096 102.9899  71.4616 15.73238111  1307
STARLINK-4730           
1 53794U 22111X   22271.91667824 -.00122717  00000+0 -88222-3 0  9998
2 53794  53.2166 178.7132 0001161 115.4057  58.4286 15.73214351  1303
